1 40023U 14033P   19088.20074458  .00000573  00000-0  65882-4 0  9994
2 40023  97.9224  10.7494 0012222 335.2960  24.7671 14.89629298259243
1 40023U 14033P   19088.53660424  .00000557  00000-0  64179-4 0  9994
2 40023  97.9223  11.0857 0012191 334.1461  25.9145 14.89629588259294
1 40023U 14033P   19088.73811997  .00000549  00000-0  63403-4 0  9999
2 40023  97.9223  11.2875 0012175 333.4440  26.6152 14.89629819259324
1 40023U 14033P   19089.81287020  .00000470  00000-0  55133-4 0  9997
2 40023  97.9224  12.3638 0012075 329.7896  30.2623 14.89630779259484
1 40023U 14033P   19090.21590133  .00000456  00000-0  53693-4 0  9998
2 40023  97.9225  12.7675 0012029 328.4609  31.5885 14.89631256259549
1 40023U 14033P   19090.82044765  .00000458  00000-0  53841-4 0  9997
2 40023  97.9225  13.3729 0011977 326.3942  33.6514 14.89632091259634
1 40023U 14033P   19091.49216585  .00000431  00000-0  51005-4 0  9993
2 40023  97.9226  14.0456 0011919 324.1227  35.9188 14.89632735259736
1 40023U 14033P   19091.82802471  .00000438  00000-0  51764-4 0  9994
2 40023  97.9227  14.3820 0011891 322.9622  37.0773 14.89633213259789
1 40023U 14033P   19092.49974251  .00000438  00000-0  51763-4 0  9993
2 40023  97.9227  15.0547 0011837 320.6565  39.3791 14.89633918259882
1 40023U 14033P   19092.76842947  .00000450  00000-0  53063-4 0  9998
2 40023  97.9228  15.3238 0011819 319.7088  40.3252 14.89634297259922
1 40023U 14033P   19093.57449003  .00000511  00000-0  59416-4 0  9990
2 40023  97.9228  16.1311 0011762 316.9014  43.1281 14.89635470260040
1 40023U 14033P   19094.78358010  .00000577  00000-0  66298-4 0  9999
2 40023  97.9229  17.3420 0011694 312.5781  47.4448 14.89637000260225
1 40023U 14033P   19095.32095283  .00000646  00000-0  73561-4 0  9998
2 40023  97.9229  17.8803 0011663 310.6460  49.3743 14.89637969260306
1 40023U 14033P   19095.72398228  .00000662  00000-0  75225-4 0  9994
2 40023  97.9229  18.2839 0011643 309.1867  50.8315 14.89638499260369
1 40023U 14033P   19096.32852621  .00000689  00000-0  78044-4 0  9994
2 40023  97.9229  18.8894 0011610 306.9764  53.0390 14.89639346260451
1 40023U 14033P   19096.59721229  .00000689  00000-0  78057-4 0  9996
2 40023  97.9228  19.1585 0011596 305.9960  54.0182 14.89639666260490
1 40023U 14033P   19096.73155532  .00000684  00000-0  77533-4 0  9993
2 40023  97.9228  19.2930 0011588 305.5134  54.5002 14.89639827260513
1 40023U 14033P   19097.73912724  .00000662  00000-0  75213-4 0  9997
2 40023  97.9227  20.3021 0011526 301.8272  58.1823 14.89641185260667
1 40023U 14033P   19098.74669792  .00000622  00000-0  71033-4 0  9995
2 40023  97.9227  21.3112 0011450 298.1904  61.8157 14.89642714260812
1 40023U 14033P   19099.75426755  .00000628  00000-0  71678-4 0  9998
2 40023  97.9226  22.3203 0011388 294.5234  65.4795 14.89644556260969
1 40023U 14033P   19100.35880887  .00000651  00000-0  73996-4 0  9998
2 40023  97.9227  22.9258 0011334 292.3472  67.6544 14.89645763261055
1 40023U 14033P   19101.09769205  .00000670  00000-0  75996-4 0  9993
2 40023  97.9227  23.6658 0011295 289.6495  70.3503 14.89647179261168
1 40023U 14033P   19101.76940377  .00000709  00000-0  80046-4 0  9993
2 40023  97.9227  24.3385 0011275 287.1696  72.8286 14.89648479261267
1 40023U 14033P   19102.44111508  .00000730  00000-0  82318-4 0  9993
2 40023  97.9227  25.0112 0011238 284.7086  75.2885 14.89649632261363
1 40023U 14033P   19102.77697046  .00000745  00000-0  83820-4 0  9990
2 40023  97.9227  25.3476 0011231 283.4786  76.5180 14.89650254261415
1 40023U 14033P   19103.51585221  .00000744  00000-0  83783-4 0  9991
2 40023  97.9227  26.0876 0011209 280.7507  79.2448 14.89651289261521
1 40023U 14033P   19103.71736527  .00000746  00000-0  83916-4 0  9990
2 40023  97.9227  26.2894 0011209 279.9981  79.9971 14.89651605261552
1 40023U 14033P   19104.72493029  .00000715  00000-0  80759-4 0  9997
2 40023  97.9227  27.2985 0011201 276.2300  83.7641 14.89652818261702
1 40023U 14033P   19105.73249426  .00000691  00000-0  78216-4 0  9997
2 40023  97.9228  28.3077 0011195 272.4453  87.5482 14.89654150261858
1 40023U 14033P   19106.74005748  .00000581  00000-0  66658-4 0  9991
2 40023  97.9228  29.3168 0011181 268.6564  91.3373 14.89655070262007
1 40023U 14033P   19107.74761969  .00000514  00000-0  59699-4 0  9999
2 40023  97.9228  30.3259 0011163 264.8397  95.1546 14.89656322262153
1 40023U 14033P   19108.75518127  .00000472  00000-0  55299-4 0  9992
2 40023  97.9229  31.3351 0011143 261.0417  98.9539 14.89657617262306
1 40023U 14033P   19109.82991312  .00000446  00000-0  52539-4 0  9997
2 40023  97.9229  32.4115 0011134 257.0151 102.9823 14.89658892262461
1 40023U 14033P   19110.83747357  .00000471  00000-0  55173-4 0  9993
2 40023  97.9229  33.4206 0011137 253.2584 106.7411 14.89660202262614
1 40023U 14033P   19111.84503352  .00000494  00000-0  57566-4 0  9993
2 40023  97.9229  34.4298 0011155 249.5291 110.4729 14.89661318262768
1 40023U 14033P   19112.71825151  .00000548  00000-0  63231-4 0  9990
2 40023  97.9229  35.3044 0011178 246.2982 113.7062 14.89662409262895
1 40023U 14033P   19113.32278686  .00000566  00000-0  65092-4 0  9990
2 40023  97.9229  35.9099 0011202 244.0536 115.9527 14.89663013262982
1 40023U 14033P   19113.59146913  .00000570  00000-0  65485-4 0  9997
2 40023  97.9229  36.1790 0011214 243.0681 116.9391 14.89663255263020
1 40023U 14033P   19113.72581025  .00000570  00000-0  65503-4 0  9990
2 40023  97.9229  36.3136 0011217 242.5707 117.4370 14.89663394263041
1 40023U 14033P   19114.33034485  .00000631  00000-0  71937-4 0  9997
2 40023  97.9228  36.9191 0011245 240.3303 119.6795 14.89664382263139
1 40023U 14033P   19114.66619759  .00000591  00000-0  67697-4 0  9999
2 40023  97.9228  37.2554 0011254 239.0792 120.9319 14.89664461263183
1 40023U 14033P   19115.33790230  .00000578  00000-0  66413-4 0  9998
2 40023  97.9228  37.9282 0011280 236.5501 123.4638 14.89665226263280
1 40023U 14033P   19115.74092492  .00000569  00000-0  65433-4 0  9999
2 40023  97.9227  38.3318 0011297 235.0551 124.9605 14.89665717263343
1 40023U 14033P   19116.34545880  .00000506  00000-0  58838-4 0  9992
2 40023  97.9228  38.9373 0011311 232.7588 127.2598 14.89666187263431
1 40023U 14033P   19116.74848118  .00000484  00000-0  56546-4 0  9995
2 40023  97.9227  39.3410 0011327 231.2450 128.7756 14.89666626263492
1 40023U 14033P   19117.35301461  .00000439  00000-0  51860-4 0  9992
2 40023  97.9228  39.9465 0011349 229.0039 131.0197 14.89667212263589
1 40023U 14033P   19117.82320711  .00000387  00000-0  46366-4 0  9990
2 40023  97.9228  40.4174 0011365 227.2668 132.7593 14.89667555263655
1 40023U 14033P   19118.42774017  .00000414  00000-0  49220-4 0  9992
2 40023  97.9229  41.0230 0011384 225.0222 135.0073 14.89668454263747
1 40023U 14033P   19118.83076214  .00000405  00000-0  48313-4 0  9993
2 40023  97.9229  41.4266 0011405 223.5390 136.4928 14.89668877263803
1 40023U 14033P   19119.83831667  .00000417  00000-0  49536-4 0  9996
2 40023  97.9230  42.4358 0011453 219.8567 140.1810 14.89670000263954
1 40023U 14033P   19120.77870042  .00000452  00000-0  53217-4 0  9991
2 40023  97.9231  43.3777 0011504 216.5033 143.5401 14.89671030264092
1 40023U 14033P   19121.31606235  .00000489  00000-0  57067-4 0  9990
2 40023  97.9232  43.9160 0011540 214.5829 145.4638 14.89671653264179
1 40023U 14033P   19121.71908362  .00000508  00000-0  59033-4 0  9997
2 40023  97.9232  44.3197 0011571 213.1665 146.8828 14.89672069264236
1 40023U 14033P   19122.32361507  .00000587  00000-0  67316-4 0  9999
2 40023  97.9232  44.9252 0011617 211.0296 149.0236 14.89673065264327
1 40023U 14033P   19122.59229576  .00000582  00000-0  66741-4 0  9993
2 40023  97.9232  45.1943 0011638 210.0746 149.9804 14.89673239264366
1 40023U 14033P   19122.79380613  .00000590  00000-0  67574-4 0  9999
2 40023  97.9232  45.3962 0011654 209.3915 150.6648 14.89673503264398
1 40023U 14033P   19123.33116734  .00000562  00000-0  64630-4 0  9990
2 40023  97.9233  45.9344 0011699 207.5195 152.5404 14.89673809264477
1 40023U 14033P   19123.73418793  .00000563  00000-0  64824-4 0  9990
2 40023  97.9232  46.3381 0011731 206.1029 153.9598 14.89674254264531
1 40023U 14033P   19124.47305869  .00000556  00000-0  64065-4 0  9990
2 40023  97.9232  47.0782 0011787 203.4437 156.6244 14.89675087264643
1 40023U 14033P   19124.74173881  .00000543  00000-0  62637-4 0  9996
2 40023  97.9232  47.3473 0011809 202.5022 157.5678 14.89675386264685
1 40023U 14033P   19125.54777886  .00000486  00000-0  56770-4 0  9997
2 40023  97.9232  48.1547 0011871 199.5874 160.4889 14.89676201264803
1 40023U 14033P   19125.81645875  .00000475  00000-0  55572-4 0  9996
2 40023  97.9232  48.4239 0011887 198.6533 161.4250 14.89676542264848
1 40023U 14033P   19126.82400791  .00000430  00000-0  50851-4 0  9990
2 40023  97.9232  49.4331 0011963 195.0684 165.0179 14.89677736264997
1 40023U 14033P   19127.83155641  .00000425  00000-0  50391-4 0  9996
2 40023  97.9232  50.4423 0012040 191.5085 168.5858 14.89679052265147
1 40023U 14033P   19128.83910428  .00000428  00000-0  50636-4 0  9994
2 40023  97.9232  51.4515 0012125 188.0441 172.0584 14.89680247265291
1 40023U 14033P   19129.71231179  .00000516  00000-0  59816-4 0  9998
2 40023  97.9232  52.3261 0012197 185.0752 175.0343 14.89681640265429
1 40023U 14033P   19129.98099095  .00000501  00000-0  58313-4 0  9991
2 40023  97.9232  52.5953 0012220 184.1927 175.9190 14.89681812265464
1 40023U 14033P   19130.78702797  .00000539  00000-0  62226-4 0  9990
2 40023  97.9232  53.4026 0012287 181.5370 178.5811 14.89682798265587
1 40023U 14033P   19130.98853716  .00000544  00000-0  62797-4 0  9999
2 40023  97.9232  53.6045 0012306 180.8764 179.2433 14.89683001265611
1 40023U 14033P   19131.59306433  .00000583  00000-0  66822-4 0  9992
2 40023  97.9232  54.2101 0012359 178.9026 181.2220 14.89683836265701
1 40023U 14033P   19131.79457333  .00000584  00000-0  66907-4 0  9995
2 40023  97.9232  54.4119 0012379 178.2480 181.8782 14.89684074265738
